{
  "norad_id": 41121,
  "name": "COSMOS 2513",
  "history": [
    {
      "epoch": "2026-03-27T16:55:10.581312",
      "apogee_km": 35797.07000528716,
      "perigee_km": 35777.09718359599,
      "latitude_deg": 0.04792856694861552,
      "longitude_deg": 63.77842367999256,
      "semi_major_axis_km": 42165.220594441584,
      "eccentricity": 0.00023684,
      "inclination_deg": 0.0526,
      "raan_deg": 102.0223,
      "arg_perigee_deg": 270.6744,
      "mean_anomaly_deg": 146.4683,
      "mean_motion_rev_day": 1.00270042
    }
  ]
}