{"fetched_at":"2026-03-29T02:12:04Z","count":15717,"tles":[{"name":"COSMOS 2513","line1":"1 41121U 15075A   26086.70498358 -.00000157  00000+0  00000+0 0  9995","line2":"2 41121   0.0526 102.0223 0002368 270.6744 146.4683  1.00270042 37731","category":"Other"}]}